*******************************************************************************
Ephemeris / WWW_USER Mon Mar 10 06:55:33 2025 Pasadena, USA      / Horizons    
*******************************************************************************
Target body name: (2018 WD2)                      {source: JPL#7}
Center body name: Earth (399)                     {source: DE441}
Center-site name: Mauna Kea
*******************************************************************************
Start time      : A.D. 2018-Dec-20 03:57:00.0000 UT      
Stop  time      : A.D. 2018-Dec-20 16:41:00.0000 UT      
Step-size       : 1 minutes
*******************************************************************************
Target pole/equ : undefined
Target radii    : undefined                                                    
Center geodetic : 204.5278, 19.8260847, 4.21024   {E-lon(deg),Lat(deg),Alt(km)}
Center cylindric: 204.5278, 6006.35451, 2151.0229 {E-lon(deg),Dxy(km),Dz(km)}
Center pole/equ : ITRF93                          {East-longitude positive}
Center radii    : 6378.137, 6378.137, 6356.752 km {Equator_a, b, pole_c}       
Target primary  : Sun
Vis. interferer : MOON (R_eq= 1737.400) km        {source: DE441}
Rel. light bend : Sun                             {source: DE441}
Rel. lght bnd GM: 1.3271E+11 km^3/s^2                                          
Small-body perts: Yes                             {source: SB441-N16}
Atmos refraction: NO (AIRLESS)
RA format       : HMS
Time format     : CAL 
Calendar mode   : Mixed Julian/Gregorian
RTS-only print  : NO       
EOP file        : eop.250307.p250603                                           
EOP coverage    : DATA-BASED 1962-JAN-20 TO 2025-MAR-07. PREDICTS-> 2025-JUN-02
Units conversion: 1 au= 149597870.700 km, c= 299792.458 km/s, 1 day= 86400.0 s 
Table cut-offs 1: Elevation (-90.0deg=NO ),Airmass (>38.000=NO), Daylight (YES)
Table cut-offs 2: Solar elongation (  0.0,180.0=NO ),Local Hour Angle( 0.0=NO )
Table cut-offs 3: RA/DEC angular rate (     0.0=NO )                           
*******************************************************************************
Initial IAU76/J2000 heliocentric ecliptic osculating elements (au, days, deg.):
  EPOCH=  2458442.5 ! 2018-Nov-20.00 (TDB)         Residual RMS= .32422        
   EC= .524986067713519    QR= .9778174985080528   TP= 2458471.2675125618      
   OM= 251.0855257113189   W=  198.8561547827716   IN= 2.860917524648221       
  Equivalent ICRF heliocentric cartesian coordinates (au, au/d):
   X= 5.933978759455335E-01  Y= 7.796199626272187E-01  Z= 3.534710331364960E-01
  VX=-1.894544763705440E-02 VY= 7.774789113426014E-03 VZ= 2.252803318104249E-03
Asteroid physical parameters (km, seconds, rotational period in hours):        
   GM= n.a.                RAD= n.a.               ROTPER= n.a.                
   H= 26.2                 G= .150                 B-V= n.a.                   
                           ALBEDO= n.a.            STYP= n.a.                  
*******************************************************************************
 Date__(UT)__HR:MN     R.A._________(ICRF)_________DEC
******************************************************
$$SOE
 2018-Dec-20 03:57 Cm  11 57 02.250224 -15 56 36.89188
 2018-Dec-20 03:58 Cm  11 57 02.375145 -15 56 37.26295
 2018-Dec-20 03:59 Cm  11 57 02.500075 -15 56 37.63465
 2018-Dec-20 04:00 Cm  11 57 02.625014 -15 56 38.00696
 2018-Dec-20 04:01 Cm  11 57 02.749961 -15 56 38.37990
 2018-Dec-20 04:02 Cm  11 57 02.874915 -15 56 38.75346
 2018-Dec-20 04:03 Cm  11 57 02.999876 -15 56 39.12764
 2018-Dec-20 04:04 Cm  11 57 03.124842 -15 56 39.50244
 2018-Dec-20 04:05 Cm  11 57 03.249814 -15 56 39.87787
 2018-Dec-20 04:06 Cm  11 57 03.374789 -15 56 40.25391
 2018-Dec-20 04:07 Cm  11 57 03.499769 -15 56 40.63058
 2018-Dec-20 04:08 Cm  11 57 03.624752 -15 56 41.00788
 2018-Dec-20 04:09 Cm  11 57 03.749736 -15 56 41.38579
 2018-Dec-20 04:10 Cm  11 57 03.874723 -15 56 41.76433
 2018-Dec-20 04:11 Cm  11 57 03.999710 -15 56 42.14349
 2018-Dec-20 04:12 Nm  11 57 04.124697 -15 56 42.52327
 2018-Dec-20 04:13 Nm  11 57 04.249683 -15 56 42.90368
 2018-Dec-20 04:14 Nm  11 57 04.374669 -15 56 43.28471
 2018-Dec-20 04:15 Nm  11 57 04.499652 -15 56 43.66637
 2018-Dec-20 04:16 Nm  11 57 04.624632 -15 56 44.04865
 2018-Dec-20 04:17 Nm  11 57 04.749609 -15 56 44.43155
 2018-Dec-20 04:18 Nm  11 57 04.874582 -15 56 44.81507
 2018-Dec-20 04:19 Nm  11 57 04.999549 -15 56 45.19922
 2018-Dec-20 04:20 Nm  11 57 05.124511 -15 56 45.58399
 2018-Dec-20 04:21 Nm  11 57 05.249467 -15 56 45.96939
 2018-Dec-20 04:22 Nm  11 57 05.374416 -15 56 46.35541
 2018-Dec-20 04:23 Nm  11 57 05.499356 -15 56 46.74205
 2018-Dec-20 04:24 Nm  11 57 05.624289 -15 56 47.12932
 2018-Dec-20 04:25 Nm  11 57 05.749212 -15 56 47.51721
 2018-Dec-20 04:26 Nm  11 57 05.874125 -15 56 47.90572
 2018-Dec-20 04:27 Nm  11 57 05.999027 -15 56 48.29486
 2018-Dec-20 04:28 Nm  11 57 06.123918 -15 56 48.68462
 2018-Dec-20 04:29 Nm  11 57 06.248797 -15 56 49.07501
 2018-Dec-20 04:30 Nm  11 57 06.373663 -15 56 49.46601
 2018-Dec-20 04:31 Nm  11 57 06.498516 -15 56 49.85765
 2018-Dec-20 04:32 Nm  11 57 06.623354 -15 56 50.24990
 2018-Dec-20 04:33 Nm  11 57 06.748178 -15 56 50.64277
 2018-Dec-20 04:34 Nm  11 57 06.872985 -15 56 51.03627
 2018-Dec-20 04:35 Nm  11 57 06.997777 -15 56 51.43039
 2018-Dec-20 04:36 Nm  11 57 07.122551 -15 56 51.82514
 2018-Dec-20 04:37 Nm  11 57 07.247307 -15 56 52.22050
 2018-Dec-20 04:38 Nm  11 57 07.372045 -15 56 52.61649
 2018-Dec-20 04:39 Am  11 57 07.496764 -15 56 53.01310
 2018-Dec-20 04:40 Am  11 57 07.621462 -15 56 53.41033
 2018-Dec-20 04:41 Am  11 57 07.746140 -15 56 53.80818
 2018-Dec-20 04:42 Am  11 57 07.870797 -15 56 54.20665
 2018-Dec-20 04:43 Am  11 57 07.995431 -15 56 54.60574
 2018-Dec-20 04:44 Am  11 57 08.120043 -15 56 55.00545
 2018-Dec-20 04:45 Am  11 57 08.244631 -15 56 55.40579
 2018-Dec-20 04:46 Am  11 57 08.369195 -15 56 55.80674
 2018-Dec-20 04:47 Am  11 57 08.493734 -15 56 56.20831
 2018-Dec-20 04:48 Am  11 57 08.618247 -15 56 56.61050
 2018-Dec-20 04:49 Am  11 57 08.742734 -15 56 57.01331
 2018-Dec-20 04:50 Am  11 57 08.867194 -15 56 57.41674
 2018-Dec-20 04:51 Am  11 57 08.991626 -15 56 57.82078
 2018-Dec-20 04:52 Am  11 57 09.116029 -15 56 58.22545
 2018-Dec-20 04:53 Am  11 57 09.240404 -15 56 58.63073
 2018-Dec-20 04:54 Am  11 57 09.364748 -15 56 59.03663
 2018-Dec-20 04:55 Am  11 57 09.489062 -15 56 59.44314
 2018-Dec-20 04:56 Am  11 57 09.613344 -15 56 59.85027
 2018-Dec-20 04:57 Am  11 57 09.737595 -15 57 00.25801
 2018-Dec-20 04:58 Am  11 57 09.861813 -15 57 00.66637
 2018-Dec-20 04:59 Am  11 57 09.985997 -15 57 01.07535
 2018-Dec-20 05:00 Am  11 57 10.110147 -15 57 01.48494
 2018-Dec-20 05:01 Am  11 57 10.234262 -15 57 01.89514
 2018-Dec-20 05:02 Am  11 57 10.358342 -15 57 02.30595
 2018-Dec-20 05:03 Am  11 57 10.482385 -15 57 02.71738
 2018-Dec-20 05:04 Am  11 57 10.606392 -15 57 03.12942
 2018-Dec-20 05:05 Am  11 57 10.730361 -15 57 03.54207
 2018-Dec-20 05:06  m  11 57 10.854291 -15 57 03.95533
 2018-Dec-20 05:07  m  11 57 10.978182 -15 57 04.36921
 2018-Dec-20 05:08  m  11 57 11.102034 -15 57 04.78369
 2018-Dec-20 05:09  m  11 57 11.225845 -15 57 05.19878
 2018-Dec-20 05:10  m  11 57 11.349615 -15 57 05.61448
 2018-Dec-20 05:11  m  11 57 11.473343 -15 57 06.03079
 2018-Dec-20 05:12  m  11 57 11.597029 -15 57 06.44770
 2018-Dec-20 05:13  m  11 57 11.720671 -15 57 06.86523
 2018-Dec-20 05:14  m  11 57 11.844270 -15 57 07.28335
 2018-Dec-20 05:15  m  11 57 11.967823 -15 57 07.70209
 2018-Dec-20 05:16  m  11 57 12.091332 -15 57 08.12143
 2018-Dec-20 05:17  m  11 57 12.214794 -15 57 08.54137
 2018-Dec-20 05:18  m  11 57 12.338210 -15 57 08.96191
 2018-Dec-20 05:19  m  11 57 12.461578 -15 57 09.38306
 2018-Dec-20 05:20  m  11 57 12.584898 -15 57 09.80481
 2018-Dec-20 05:21  m  11 57 12.708169 -15 57 10.22716
 2018-Dec-20 05:22  m  11 57 12.831391 -15 57 10.65012
 2018-Dec-20 05:23  m  11 57 12.954563 -15 57 11.07367
 2018-Dec-20 05:24  m  11 57 13.077684 -15 57 11.49782
 2018-Dec-20 05:25  m  11 57 13.200753 -15 57 11.92257
 2018-Dec-20 05:26  m  11 57 13.323770 -15 57 12.34791
 2018-Dec-20 05:27  m  11 57 13.446734 -15 57 12.77385
 2018-Dec-20 05:28  m  11 57 13.569644 -15 57 13.20039
 2018-Dec-20 05:29  m  11 57 13.692501 -15 57 13.62752
 2018-Dec-20 05:30  m  11 57 13.815302 -15 57 14.05525
 2018-Dec-20 05:31  m  11 57 13.938047 -15 57 14.48357
 2018-Dec-20 05:32  m  11 57 14.060737 -15 57 14.91248
 2018-Dec-20 05:33  m  11 57 14.183369 -15 57 15.34199
 2018-Dec-20 05:34  m  11 57 14.305944 -15 57 15.77208
 2018-Dec-20 05:35  m  11 57 14.428460 -15 57 16.20276
 2018-Dec-20 05:36  m  11 57 14.550917 -15 57 16.63404
 2018-Dec-20 05:37  m  11 57 14.673315 -15 57 17.06590
 2018-Dec-20 05:38  m  11 57 14.795652 -15 57 17.49834
 2018-Dec-20 05:39  m  11 57 14.917928 -15 57 17.93138
 2018-Dec-20 05:40  m  11 57 15.040142 -15 57 18.36499
 2018-Dec-20 05:41  m  11 57 15.162294 -15 57 18.79920
 2018-Dec-20 05:42  m  11 57 15.284383 -15 57 19.23398
 2018-Dec-20 05:43  m  11 57 15.406408 -15 57 19.66935
 2018-Dec-20 05:44  m  11 57 15.528369 -15 57 20.10530
 2018-Dec-20 05:45  m  11 57 15.650264 -15 57 20.54182
 2018-Dec-20 05:46  m  11 57 15.772094 -15 57 20.97893
 2018-Dec-20 05:47  m  11 57 15.893858 -15 57 21.41661
 2018-Dec-20 05:48  m  11 57 16.015554 -15 57 21.85488
 2018-Dec-20 05:49  m  11 57 16.137183 -15 57 22.29371
 2018-Dec-20 05:50  m  11 57 16.258744 -15 57 22.73312
 2018-Dec-20 05:51  m  11 57 16.380235 -15 57 23.17311
 2018-Dec-20 05:52  m  11 57 16.501657 -15 57 23.61367
 2018-Dec-20 05:53  m  11 57 16.623008 -15 57 24.05480
 2018-Dec-20 05:54  m  11 57 16.744288 -15 57 24.49650
 2018-Dec-20 05:55  m  11 57 16.865497 -15 57 24.93877
 2018-Dec-20 05:56  m  11 57 16.986633 -15 57 25.38160
 2018-Dec-20 05:57  m  11 57 17.107697 -15 57 25.82501
 2018-Dec-20 05:58  m  11 57 17.228687 -15 57 26.26898
 2018-Dec-20 05:59  m  11 57 17.349602 -15 57 26.71351
